OBJECT_NAME,OBJECT_ID,EPOCH,MEAN_MOTION,ECCENTRICITY,INCLINATION,RA_OF_ASC_NODE,ARG_OF_PERICENTER,MEAN_ANOMALY,EPHEMERIS_TYPE,CLASSIFICATION_TYPE,NORAD_CAT_ID,ELEMENT_SET_NO,REV_AT_EPOCH,BSTAR,MEAN_MOTION_DOT,MEAN_MOTION_DDOT
SENTINEL-6A,2020-086A,2026-07-11T18:10:46.171776,12.80930066,.00078099,66.0413,84.0210,269.9227,90.0894,0,U,46984,999,26347,-.42901565E-4,-.71E-6,0
CAS500-1,2021-022A,2026-07-11T17:56:02.386176,15.20158661,.00048164,97.3876,87.5003,180.0597,180.0639,0,U,47932,999,29449,.1579224E-3,.335E-4,0
GAOFEN-12 02,2021-026A,2026-07-11T18:18:29.597184,14.80314536,.00056113,97.9932,190.8441,141.1918,218.9698,0,U,48079,999,28539,.30625147E-4,.181E-5,0
PLEIADES NEO 3,2021-034A,2026-07-11T18:25:05.930400,14.81678677,.00013595,97.8940,267.1804,94.2346,265.9022,0,U,48268,999,28129,.12815068E-3,.957E-5,0
PLEIADES NEO 4,2021-073E,2026-07-11T19:13:42.792672,14.81673597,.00013333,97.8938,267.2098,91.9294,268.2072,0,U,49070,999,26501,.28206074E-4,.17E-5,0
LANDSAT 9,2021-088A,2026-07-10T19:39:17.009568,14.57104464,.00015127,98.2341,261.7009,185.5660,174.5522,0,U,49260,999,25444,.43074943E-4,.149E-5,0
CSG-2,2022-008A,2026-07-11T19:03:16.384896,14.82148206,.00015233,97.8894,16.0355,85.4984,274.6403,0,U,51444,999,24023,.40897418E-4,.273E-5,0
GAOFEN-12 03,2022-069A,2026-07-11T17:30:18.495936,14.80073785,.00024924,97.8254,79.9779,76.9456,283.2035,0,U,52912,999,21824,.10743048E-3,.763E-5,0
SWOT,2022-173A,2026-07-11T18:47:19.872096,14.00172170,.00002841,77.6107,2.1046,77.8798,282.2386,0,U,54754,999,18259,.50913982E-4,.73E-6,0
GAOFEN-12 04,2023-123A,2026-07-11T17:57:40.313664,14.79771643,.00036873,97.9104,110.4003,57.2389,302.9178,0,U,57654,999,15626,.25959601E-3,.1902E-4,0
PARS 1,2024-039Q,2026-07-11T18:44:32.000352,15.46240149,.00102083,97.4830,174.4859,37.9434,322.2533,0,U,59065,999,13244,.15003129E-3,.7297E-4,0
RESURS-P 4,2024-061A,2026-07-11T19:39:16.763328,15.32267566,.00032058,97.2758,140.2919,94.3632,265.7977,0,U,59371,999,12753,.61100828E-4,.1828E-4,0
LEGION 1,2024-081A,2026-07-11T18:26:57.385536,15.16829890,.00076861,97.5015,270.3647,283.9451,76.0927,0,U,59625,999,12126,.11438104E-3,.2182E-4,0
LEGION 2,2024-081B,2026-07-11T17:35:38.557824,15.16808572,.00100543,97.5014,270.4263,247.0078,113.0095,0,U,59626,999,12126,.99465159E-4,.1889E-4,0
ALOS-4 (DAICHI-4),2024-123A,2026-07-11T18:38:42.827712,14.79475912,.00016038,97.9220,289.5999,97.7112,262.4282,0,U,60182,999,10951,.10995531E-3,.77E-5,0
LEGION 3,2024-146A,2026-07-11T15:29:39.703488,15.15641977,.0008526,45.0012,259.4148,315.1930,44.8259,0,U,60452,999,10573,.12016822E-3,.2061E-4,0
LEGION 4,2024-146B,2026-07-11T17:04:17.761152,15.15664235,.00089336,45.0029,350.9295,91.4019,268.7883,0,U,60453,999,10459,.16272817E-3,.2887E-4,0
SENTINEL-2C,2024-157A,2026-07-11T18:54:37.788768,14.30815045,.00009505,98.5685,267.2210,100.0573,260.0717,0,U,60989,999,9650,.27399863E-4,.28E-6,0
IONOSFERA-M 1,2024-199A,2026-07-11T17:42:00.230688,14.22758645,.00021948,98.7141,65.6469,77.2921,282.8503,0,U,61735,999,13119,.33403797E-4,.31E-6,0
IONOSFERA-M 2,2024-199B,2026-07-11T18:31:18.269472,14.22762031,.00003815,98.7139,65.5912,112.0977,248.0242,0,U,61736,999,13432,.2909851E-4,.21E-6,0
PRSC-EO1,2025-012A,2026-07-11T07:44:52.484352,15.17752178,.00066307,97.4221,264.3100,161.2543,198.8936,0,U,62725,999,8185,.20455326E-3,.4065E-4,0
BIOMASS,2025-090A,2026-07-11T12:19:38.521056,14.67537501,.00014739,98.0731,19.4739,88.7635,271.3739,0,U,63772,999,6425,.10842658E-3,.567E-5,0
GOSAT-GW (IBUKI GW),2025-141A,2026-07-11T19:17:15.952704,14.67554521,.00014368,98.0564,129.7209,85.4346,274.7023,0,U,64694,999,5545,.49272479E-4,.232E-5,0
IONOSFERA-M 3,2025-155A,2026-07-11T19:28:29.864928,14.21490455,.00021891,98.6038,154.0983,117.7202,242.4198,0,U,64876,999,4990,.19625175E-4,0,0
IONOSFERA-M 4,2025-155B,2026-07-11T18:37:14.968416,14.21492856,.00017658,98.6037,153.9808,102.9927,257.1448,0,U,64877,999,4989,.22965205E-4,.7E-7,0
MICROCARB,2025-156A,2026-07-11T17:54:22.967424,14.72882797,.0017347,98.0075,269.4966,181.6245,178.4909,0,U,64899,999,5158,.49502826E-4,.267E-5,0
CO3D 3,2025-156B,2026-07-11T17:44:54.436416,15.20219778,.00018283,97.4337,271.0794,100.3787,259.7654,0,U,64900,999,5326,.11581628E-3,.2442E-4,0
CO3D 4,2025-156C,2026-07-11T17:45:08.745984,15.20190374,.00014347,97.4335,271.0801,161.7613,198.3674,0,U,64901,999,5326,.37507908E-4,.744E-5,0
CO3D 2,2025-156D,2026-07-11T18:31:54.971328,15.20204222,.00013073,97.4337,271.0103,88.6908,271.4477,0,U,64902,999,5326,.11903033E-3,.251E-4,0
CO3D 1,2025-156E,2026-07-11T18:32:07.937376,15.20207820,.00013099,97.4337,271.0106,101.3231,258.8151,0,U,64903,999,5326,.1201612E-3,.2535E-4,0
PRSC-S1,2025-164A,2026-07-11T17:25:40.821888,15.06617968,.0006168,41.1292,149.5880,175.2441,184.8432,0,U,65055,999,5213,.1582858E-3,.221E-4,0
SENTINEL-6B,2025-264A,2026-07-11T18:11:16.232064,12.80930074,.00078704,66.0413,84.1463,268.7523,91.2591,0,U,66514,999,3031,-.43156749E-4,-.71E-6,0
CAS500-3,2025-274F,2026-07-11T18:05:58.458048,14.88378865,.00064617,97.7438,120.2465,47.2907,312.8853,0,U,66655,999,3380,.78679936E-4,.675E-5,0
CSG-3,2026-001A,2026-07-11T12:04:05.088288,14.82150491,.00014925,97.8892,15.7530,93.1085,267.0299,0,U,67304,999,2806,.28101767E-4,.171E-5,0
PRSC-E03,2026-092A,2026-07-11T17:01:04.022112,15.06798925,.00046149,38.0020,305.0676,229.3694,130.6667,0,U,68835,999,1165,.10478021E-3,.1481E-4,0
CAS500-2,2026-100AK,2026-07-11T16:41:29.872896,15.20876867,.00080047,97.3877,90.0874,306.8039,53.2461,0,U,69013,999,1053,.15743373E-3,.3412E-4,0
